{
  "type": "FeatureCollection",
  "features": [
    {
      "type": "Feature",
      "properties": {
        "norad_id": 64751,
        "name": "PROGRESS-MS 31",
        "group": "stations",
        "lat": -30.72843438662055,
        "lon": 110.29135998609844,
        "alt_km": 421.17079995078893,
        "timestamp": "2025-12-13T13:34:33.887274+00:00",
        "meta_object_name": "PROGRESS-MS 31",
        "meta_object_id": "2025-146A",
        "meta_epoch": "2025-12-12T20:43:30.984384",
        "meta_mean_motion": 15.49550036,
        "meta_eccentricity": 0.00032451,
        "meta_inclination": 51.6304,
        "meta_ra_of_asc_node": 141.8664,
        "meta_arg_of_pericenter": 240.6311,
        "meta_mean_anomaly": 119.4354,
        "meta_ephemeris_type": 0,
        "meta_classification_type": "U",
        "meta_norad_cat_id": 64751,
        "meta_element_set_no": 999,
        "meta_rev_at_epoch": 675,
        "meta_bstar": 0.00025741225,
        "meta_mean_motion_dot": 0.00014033,
        "meta_mean_motion_ddot": 0,
        "tle_line1": "1 64751U 25146A   25346.86355306  .00014033  00000+0  25741-3 0  9999",
        "tle_line2": "2 64751  51.6304 141.8664 0003245 240.6311 119.4354 15.49550036  6758"
      },
      "geometry": {
        "type": "Point",
        "coordinates": [
          110.29135998609844,
          -30.72843438662055
        ]
      }
    },
    {
      "type": "Feature",
      "properties": {
        "norad_id": 64786,
        "name": "TIANZHOU-9",
        "group": "stations",
        "lat": 40.13039745039324,
        "lon": 119.0292576751489,
        "alt_km": 381.13117325976054,
        "timestamp": "2025-12-13T13:34:33.887287+00:00",
        "meta_object_name": "TIANZHOU-9",
        "meta_object_id": "2025-149A",
        "meta_epoch": "2025-12-12T23:18:04.584096",
        "meta_mean_motion": 15.5917806,
        "meta_eccentricity": 0.00082454,
        "meta_inclination": 41.4684,
        "meta_ra_of_asc_node": 15.3046,
        "meta_arg_of_pericenter": 32.5257,
        "meta_mean_anomaly": 327.6088,
        "meta_ephemeris_type": 0,
        "meta_classification_type": "U",
        "meta_norad_cat_id": 64786,
        "meta_element_set_no": 999,
        "meta_rev_at_epoch": 25530,
        "meta_bstar": 0.00033032775,
        "meta_mean_motion_dot": 0.00026417,
        "meta_mean_motion_ddot": 0,
        "tle_line1": "1 64786U 25149A   25346.97088639  .00026417  00000+0  33033-3 0  9996",
        "tle_line2": "2 64786  41.4684  15.3046 0008245  32.5257 327.6088 15.59178060255303"
      },
      "geometry": {
        "type": "Point",
        "coordinates": [
          119.0292576751489,
          40.13039745039324
        ]
      }
    },
    {
      "type": "Feature",
      "properties": {
        "norad_id": 65077,
        "name": "CREW DRAGON 11",
        "group": "stations",
        "lat": -30.728433404754757,
        "lon": 110.29136117828051,
        "alt_km": 421.17079994232336,
        "timestamp": "2025-12-13T13:34:33.887296+00:00",
        "meta_object_name": "CREW DRAGON 11",
        "meta_object_id": "2025-166A",
        "meta_epoch": "2025-12-12T20:43:30.984384",
        "meta_mean_motion": 15.49550036,
        "meta_eccentricity": 0.00032451,
        "meta_inclination": 51.6304,
        "meta_ra_of_asc_node": 141.8664,
        "meta_arg_of_pericenter": 240.6311,
        "meta_mean_anomaly": 119.4354,
        "meta_ephemeris_type": 0,
        "meta_classification_type": "U",
        "meta_norad_cat_id": 65077,
        "meta_element_set_no": 999,
        "meta_rev_at_epoch": 214,
        "meta_bstar": 0.00025741225,
        "meta_mean_motion_dot": 0.00014033,
        "meta_mean_motion_ddot": 0,
        "tle_line1": "1 65077U 25166A   25346.86355306  .00014033  00000+0  25741-3 0  9993",
        "tle_line2": "2 65077  51.6304 141.8664 0003245 240.6311 119.4354 15.49550036  2149"
      },
      "geometry": {
        "type": "Point",
        "coordinates": [
          110.29136117828051,
          -30.728433404754757
        ]
      }
    },
    {
      "type": "Feature",
      "properties": {
        "norad_id": 65304,
        "name": "DRAGON CRS-33",
        "group": "stations",
        "lat": -30.728433003082074,
        "lon": 110.29136166599174,
        "alt_km": 421.17079993886,
        "timestamp": "2025-12-13T13:34:33.887305+00:00",
        "meta_object_name": "DRAGON CRS-33",
        "meta_object_id": "2025-186A",
        "meta_epoch": "2025-12-12T20:43:30.984384",
        "meta_mean_motion": 15.49550036,
        "meta_eccentricity": 0.00032451,
        "meta_inclination": 51.6304,
        "meta_ra_of_asc_node": 141.8664,
        "meta_arg_of_pericenter": 240.6311,
        "meta_mean_anomaly": 119.4354,
        "meta_ephemeris_type": 0,
        "meta_classification_type": "U",
        "meta_norad_cat_id": 65304,
        "meta_element_set_no": 999,
        "meta_rev_at_epoch": 11,
        "meta_bstar": 0.00025741225,
        "meta_mean_motion_dot": 0.00014033,
        "meta_mean_motion_ddot": 0,
        "tle_line1": "1 65304U 25186A   25346.86355306  .00014033  00000+0  25741-3 0  9998",
        "tle_line2": "2 65304  51.6304 141.8664 0003245 240.6311 119.4354 15.49550036   117"
      },
      "geometry": {
        "type": "Point",
        "coordinates": [
          110.29136166599174,
          -30.728433003082074
        ]
      }
    },
    {
      "type": "Feature",
      "properties": {
        "norad_id": 65586,
        "name": "PROGRESS-MS 32",
        "group": "stations",
        "lat": -30.728432601408773,
        "lon": 110.29136215370372,
        "alt_km": 421.1707999353912,
        "timestamp": "2025-12-13T13:34:33.887314+00:00",
        "meta_object_name": "PROGRESS-MS 32",
        "meta_object_id": "2025-204A",
        "meta_epoch": "2025-12-12T20:43:30.984384",
        "meta_mean_motion": 15.49550036,
        "meta_eccentricity": 0.00032451,
        "meta_inclination": 51.6304,
        "meta_ra_of_asc_node": 141.8664,
        "meta_arg_of_pericenter": 240.6311,
        "meta_mean_anomaly": 119.4354,
        "meta_ephemeris_type": 0,
        "meta_classification_type": "U",
        "meta_norad_cat_id": 65586,
        "meta_element_set_no": 999,
        "meta_rev_at_epoch": 27,
        "meta_bstar": 0.00025741225,
        "meta_mean_motion_dot": 0.00014033,
        "meta_mean_motion_ddot": 0,
        "tle_line1": "1 65586U 25204A   25346.86355306  .00014033  00000+0  25741-3 0  9991",
        "tle_line2": "2 65586  51.6304 141.8664 0003245 240.6311 119.4354 15.49550036   276"
      },
      "geometry": {
        "type": "Point",
        "coordinates": [
          110.29136215370372,
          -30.728432601408773
        ]
      }
    },
    {
      "type": "Feature",
      "properties": {
        "norad_id": 65616,
        "name": "CYGNUS NG-23",
        "group": "stations",
        "lat": -30.72843215510585,
        "lon": 110.29136269560497,
        "alt_km": 421.1707999315422,
        "timestamp": "2025-12-13T13:34:33.887324+00:00",
        "meta_object_name": "CYGNUS NG-23",
        "meta_object_id": "2025-208A",
        "meta_epoch": "2025-12-12T20:43:30.984384",
        "meta_mean_motion": 15.49550036,
        "meta_eccentricity": 0.00032451,
        "meta_inclination": 51.6304,
        "meta_ra_of_asc_node": 141.8664,
        "meta_arg_of_pericenter": 240.6311,
        "meta_mean_anomaly": 119.4354,
        "meta_ephemeris_type": 0,
        "meta_classification_type": "U",
        "meta_norad_cat_id": 65616,
        "meta_element_set_no": 999,
        "meta_rev_at_epoch": 22,
        "meta_bstar": 0.00025741225,
        "meta_mean_motion_dot": 0.00014033,
        "meta_mean_motion_ddot": 0,
        "tle_line1": "1 65616U 25208A   25346.86355306  .00014033  00000+0  25741-3 0  9999",
        "tle_line2": "2 65616  51.6304 141.8664 0003245 240.6311 119.4354 15.49550036   225"
      },
      "geometry": {
        "type": "Point",
        "coordinates": [
          110.29136269560497,
          -30.72843215510585
        ]
      }
    },
    {
      "type": "Feature",
      "properties": {
        "norad_id": 65729,
        "name": "DRAGONFLY",
        "group": "stations",
        "lat": 3.527407013418772,
        "lon": 134.3322827125044,
        "alt_km": 352.2494423221269,
        "timestamp": "2025-12-13T13:34:33.887334+00:00",
        "meta_object_name": "DRAGONFLY",
        "meta_object_id": "1998-067XH",
        "meta_epoch": "2025-12-12T16:11:54.021120",
        "meta_mean_motion": 15.71879709,
        "meta_eccentricity": 0.0006787,
        "meta_inclination": 51.6248,
        "meta_ra_of_asc_node": 136.0967,
        "meta_arg_of_pericenter": 276.9077,
        "meta_mean_anomaly": 83.1148,
        "meta_ephemeris_type": 0,
        "meta_classification_type": "U",
        "meta_norad_cat_id": 65729,
        "meta_element_set_no": 999,
        "meta_rev_at_epoch": 1315,
        "meta_bstar": 0.001612676,
        "meta_mean_motion_dot": 0.00219639,
        "meta_mean_motion_ddot": 0,
        "tle_line1": "1 65729U 98067XH  25346.67493080  .00219639  00000+0  16127-2 0  9994",
        "tle_line2": "2 65729  51.6248 136.0967 0006787 276.9077  83.1148 15.71879709 13154"
      },
      "geometry": {
        "type": "Point",
        "coordinates": [
          134.3322827125044,
          3.527407013418772
        ]
      }
    }
  ]
}